[
  {
    "OBJECT_NAME": "STARLINK-34635",
    "OBJECT_ID": "25147G",
    "EPOCH": "2025-11-10T11:41:14.307360",
    "MEAN_MOTION": 15.30194267,
    "ECCENTRICITY": 0.0001518,
    "INCLINATION": 53.1591,
    "RA_OF_ASC_NODE": 76.2716,
    "ARG_OF_PERICENTER": 14.8017,
    "MEAN_ANOMALY": 345.3028,
    "EPHEMERIS_TYPE": 0,
    "CLASSIFICATION_TYPE": "U",
    "NORAD_CAT_ID": 64761,
    "ELEMENT_SET_NO": 999,
    "REV_AT_EPOCH": 2050,
    "BSTAR": 0.0006087,
    "MEAN_MOTION_DOT": 0.00017708,
    "MEAN_MOTION_DDOT": 0.0,
    "TLE_LINE1": "1 64761U 25147G   25314.48697115  .00017708  00000+0  60870-3 0  9995",
    "TLE_LINE2": "2 64761  53.1591  76.2716 0001518  14.8017 345.3028 15.30194267 20505",
    "COMMENT": "Grouped by shell and plane from TLE"
  },
  {
    "OBJECT_NAME": "STARLINK-34638",
    "OBJECT_ID": "25147H",
    "EPOCH": "2025-11-11T07:00:15.917760",
    "MEAN_MOTION": 15.30247477,
    "ECCENTRICITY": 0.0001949,
    "INCLINATION": 53.1593,
    "RA_OF_ASC_NODE": 72.7636,
    "ARG_OF_PERICENTER": 83.9137,
    "MEAN_ANOMALY": 276.2086,
    "EPHEMERIS_TYPE": 0,
    "CLASSIFICATION_TYPE": "U",
    "NORAD_CAT_ID": 64762,
    "ELEMENT_SET_NO": 999,
    "REV_AT_EPOCH": 2062,
    "BSTAR": 0.0020018,
    "MEAN_MOTION_DOT": 0.00059492,
    "MEAN_MOTION_DDOT": 0.0,
    "TLE_LINE1": "1 64762U 25147H   25315.29185090  .00059492  00000+0  20018-2 0  9995",
    "TLE_LINE2": "2 64762  53.1593  72.7636 0001949  83.9137 276.2086 15.30247477 20629",
    "COMMENT": "Grouped by shell and plane from TLE"
  },
  {
    "OBJECT_NAME": "STARLINK-34534",
    "OBJECT_ID": "25147J",
    "EPOCH": "2025-11-11T00:54:41.487552",
    "MEAN_MOTION": 15.30217937,
    "ECCENTRICITY": 0.0001387,
    "INCLINATION": 53.1539,
    "RA_OF_ASC_NODE": 74.019,
    "ARG_OF_PERICENTER": 86.3922,
    "MEAN_ANOMALY": 273.7238,
    "EPHEMERIS_TYPE": 0,
    "CLASSIFICATION_TYPE": "U",
    "NORAD_CAT_ID": 64763,
    "ELEMENT_SET_NO": 999,
    "REV_AT_EPOCH": 2058,
    "BSTAR": 0.0015429,
    "MEAN_MOTION_DOT": 0.00045645,
    "MEAN_MOTION_DDOT": 0.0,
    "TLE_LINE1": "1 64763U 25147J   25315.03798018  .00045645  00000+0  15429-2 0  9993",
    "TLE_LINE2": "2 64763  53.1539  74.0190 0001387  86.3922 273.7238 15.30217937 20589",
    "COMMENT": "Grouped by shell and plane from TLE"
  },
  {
    "OBJECT_NAME": "STARLINK-34261",
    "OBJECT_ID": "25147K",
    "EPOCH": "2025-11-11T00:39:29.890656",
    "MEAN_MOTION": 15.30204823,
    "ECCENTRICITY": 0.0002203,
    "INCLINATION": 53.1592,
    "RA_OF_ASC_NODE": 73.9538,
    "ARG_OF_PERICENTER": 76.0597,
    "MEAN_ANOMALY": 284.0649,
    "EPHEMERIS_TYPE": 0,
    "CLASSIFICATION_TYPE": "U",
    "NORAD_CAT_ID": 64764,
    "ELEMENT_SET_NO": 999,
    "REV_AT_EPOCH": 2062,
    "BSTAR": 0.0020428,
    "MEAN_MOTION_DOT": 0.00060649,
    "MEAN_MOTION_DDOT": 0.0,
    "TLE_LINE1": "1 64764U 25147K   25315.02742929  .00060649  00000+0  20428-2 0  9999",
    "TLE_LINE2": "2 64764  53.1592  73.9538 0002203  76.0597 284.0649 15.30204823 20621",
    "COMMENT": "Grouped by shell and plane from TLE"
  },
  {
    "OBJECT_NAME": "STARLINK-34566",
    "OBJECT_ID": "25147L",
    "EPOCH": "2025-11-11T06:37:28.074432",
    "MEAN_MOTION": 15.30216407,
    "ECCENTRICITY": 0.0001256,
    "INCLINATION": 53.1582,
    "RA_OF_ASC_NODE": 72.6603,
    "ARG_OF_PERICENTER": 74.1479,
    "MEAN_ANOMALY": 285.966,
    "EPHEMERIS_TYPE": 0,
    "CLASSIFICATION_TYPE": "U",
    "NORAD_CAT_ID": 64765,
    "ELEMENT_SET_NO": 999,
    "REV_AT_EPOCH": 2062,
    "BSTAR": 0.00076108,
    "MEAN_MOTION_DOT": 0.00022261,
    "MEAN_MOTION_DDOT": 0.0,
    "TLE_LINE1": "1 64765U 25147L   25315.27601938  .00022261  00000+0  76108-3 0  9996",
    "TLE_LINE2": "2 64765  53.1582  72.6603 0001256  74.1479 285.9660 15.30216407 20629",
    "COMMENT": "Grouped by shell and plane from TLE"
  },
  {
    "OBJECT_NAME": "STARLINK-34645",
    "OBJECT_ID": "25147M",
    "EPOCH": "2025-11-11T07:38:15.135072",
    "MEAN_MOTION": 15.30228308,
    "ECCENTRICITY": 0.0002302,
    "INCLINATION": 53.1607,
    "RA_OF_ASC_NODE": 72.923,
    "ARG_OF_PERICENTER": 73.6548,
    "MEAN_ANOMALY": 286.4706,
    "EPHEMERIS_TYPE": 0,
    "CLASSIFICATION_TYPE": "U",
    "NORAD_CAT_ID": 64766,
    "ELEMENT_SET_NO": 999,
    "REV_AT_EPOCH": 2062,
    "BSTAR": 0.0013267,
    "MEAN_MOTION_DOT": 0.00039176,
    "MEAN_MOTION_DDOT": 0.0,
    "TLE_LINE1": "1 64766U 25147M   25315.31823073  .00039176  00000+0  13267-2 0  9997",
    "TLE_LINE2": "2 64766  53.1607  72.9230 0002302  73.6548 286.4706 15.30228308 20621",
    "COMMENT": "Grouped by shell and plane from TLE"
  },
  {
    "OBJECT_NAME": "STARLINK-34639",
    "OBJECT_ID": "25147N",
    "EPOCH": "2025-11-10T11:47:18.343392",
    "MEAN_MOTION": 15.30221764,
    "ECCENTRICITY": 0.0001195,
    "INCLINATION": 53.1602,
    "RA_OF_ASC_NODE": 76.2937,
    "ARG_OF_PERICENTER": 95.0873,
    "MEAN_ANOMALY": 265.0264,
    "EPHEMERIS_TYPE": 0,
    "CLASSIFICATION_TYPE": "U",
    "NORAD_CAT_ID": 64767,
    "ELEMENT_SET_NO": 999,
    "REV_AT_EPOCH": 2045,
    "BSTAR": 0.0013089999999999998,
    "MEAN_MOTION_DOT": 0.00038638,
    "MEAN_MOTION_DDOT": 0.0,
    "TLE_LINE1": "1 64767U 25147N   25314.49118453  .00038638  00000+0  13090-2 0  9991",
    "TLE_LINE2": "2 64767  53.1602  76.2937 0001195  95.0873 265.0264 15.30221764 20458",
    "COMMENT": "Grouped by shell and plane from TLE"
  },
  {
    "OBJECT_NAME": "STARLINK-34246",
    "OBJECT_ID": "25147Q",
    "EPOCH": "2025-11-10T18:06:33.608160",
    "MEAN_MOTION": 15.30184778,
    "ECCENTRICITY": 8.08e-05,
    "INCLINATION": 53.1596,
    "RA_OF_ASC_NODE": 75.0969,
    "ARG_OF_PERICENTER": 92.7063,
    "MEAN_ANOMALY": 267.403,
    "EPHEMERIS_TYPE": 0,
    "CLASSIFICATION_TYPE": "U",
    "NORAD_CAT_ID": 64769,
    "ELEMENT_SET_NO": 999,
    "REV_AT_EPOCH": 2054,
    "BSTAR": 0.0020665,
    "MEAN_MOTION_DOT": 0.00061321,
    "MEAN_MOTION_DDOT": 0.0,
    "TLE_LINE1": "1 64769U 25147Q   25314.75455565  .00061321  00000+0  20665-2 0  9991",
    "TLE_LINE2": "2 64769  53.1596  75.0969 0000808  92.7063 267.4030 15.30184778 20549",
    "COMMENT": "Grouped by shell and plane from TLE"
  },
  {
    "OBJECT_NAME": "STARLINK-34618",
    "OBJECT_ID": "25147R",
    "EPOCH": "2025-11-10T15:03:01.008000",
    "MEAN_MOTION": 15.30204707,
    "ECCENTRICITY": 0.0001207,
    "INCLINATION": 53.1628,
    "RA_OF_ASC_NODE": 75.725,
    "ARG_OF_PERICENTER": 90.7129,
    "MEAN_ANOMALY": 269.401,
    "EPHEMERIS_TYPE": 0,
    "CLASSIFICATION_TYPE": "U",
    "NORAD_CAT_ID": 64770,
    "ELEMENT_SET_NO": 999,
    "REV_AT_EPOCH": 2045,
    "BSTAR": 0.0013372,
    "MEAN_MOTION_DOT": 0.00039461,
    "MEAN_MOTION_DDOT": 0.0,
    "TLE_LINE1": "1 64770U 25147R   25314.62709500  .00039461  00000+0  13372-2 0  9997",
    "TLE_LINE2": "2 64770  53.1628  75.7250 0001207  90.7129 269.4010 15.30204707 20457",
    "COMMENT": "Grouped by shell and plane from TLE"
  },
  {
    "OBJECT_NAME": "STARLINK-34541",
    "OBJECT_ID": "25147S",
    "EPOCH": "2025-11-11T07:48:44.086464",
    "MEAN_MOTION": 15.30205978,
    "ECCENTRICITY": 0.0002091,
    "INCLINATION": 53.1594,
    "RA_OF_ASC_NODE": 72.2613,
    "ARG_OF_PERICENTER": 85.251,
    "MEAN_ANOMALY": 274.873,
    "EPHEMERIS_TYPE": 0,
    "CLASSIFICATION_TYPE": "U",
    "NORAD_CAT_ID": 64771,
    "ELEMENT_SET_NO": 999,
    "REV_AT_EPOCH": 2056,
    "BSTAR": 0.0014763,
    "MEAN_MOTION_DOT": 0.0004363,
    "MEAN_MOTION_DDOT": 0.0,
    "TLE_LINE1": "1 64771U 25147S   25315.32551026  .00043630  00000+0  14763-2 0  9992",
    "TLE_LINE2": "2 64771  53.1594  72.2613 0002091  85.2510 274.8730 15.30205978 20562",
    "COMMENT": "Grouped by shell and plane from TLE"
  },
  {
    "OBJECT_NAME": "STARLINK-34652",
    "OBJECT_ID": "25147T",
    "EPOCH": "2025-11-11T07:47:12.364224",
    "MEAN_MOTION": 15.30229452,
    "ECCENTRICITY": 0.0001714,
    "INCLINATION": 53.1584,
    "RA_OF_ASC_NODE": 72.2549,
    "ARG_OF_PERICENTER": 74.0039,
    "MEAN_ANOMALY": 286.115,
    "EPHEMERIS_TYPE": 0,
    "CLASSIFICATION_TYPE": "U",
    "NORAD_CAT_ID": 64772,
    "ELEMENT_SET_NO": 999,
    "REV_AT_EPOCH": 2063,
    "BSTAR": 0.0015983,
    "MEAN_MOTION_DOT": 0.00047325,
    "MEAN_MOTION_DDOT": 0.0,
    "TLE_LINE1": "1 64772U 25147T   25315.32444866  .00047325  00000+0  15983-2 0  9996",
    "TLE_LINE2": "2 64772  53.1584  72.2549 0001714  74.0039 286.1150 15.30229452 20636",
    "COMMENT": "Grouped by shell and plane from TLE"
  },
  {
    "OBJECT_NAME": "STARLINK-34612",
    "OBJECT_ID": "25147U",
    "EPOCH": "2025-11-10T08:24:00.704160",
    "MEAN_MOTION": 15.30234673,
    "ECCENTRICITY": 0.0001659,
    "INCLINATION": 53.1582,
    "RA_OF_ASC_NODE": 76.837,
    "ARG_OF_PERICENTER": 80.239,
    "MEAN_ANOMALY": 279.8798,
    "EPHEMERIS_TYPE": 0,
    "CLASSIFICATION_TYPE": "U",
    "NORAD_CAT_ID": 64773,
    "ELEMENT_SET_NO": 999,
    "REV_AT_EPOCH": 2048,
    "BSTAR": 0.0018557,
    "MEAN_MOTION_DOT": 0.0005507,
    "MEAN_MOTION_DDOT": 0.0,
    "TLE_LINE1": "1 64773U 25147U   25314.35000815  .00055070  00000+0  18557-2 0  9997",
    "TLE_LINE2": "2 64773  53.1582  76.8370 0001659  80.2390 279.8798 15.30234673 20485",
    "COMMENT": "Grouped by shell and plane from TLE"
  },
  {
    "OBJECT_NAME": "STARLINK-34621",
    "OBJECT_ID": "25147V",
    "EPOCH": "2025-11-11T07:29:08.018304",
    "MEAN_MOTION": 15.30243996,
    "ECCENTRICITY": 0.0001784,
    "INCLINATION": 53.157,
    "RA_OF_ASC_NODE": 72.88,
    "ARG_OF_PERICENTER": 86.5606,
    "MEAN_ANOMALY": 273.5599,
    "EPHEMERIS_TYPE": 0,
    "CLASSIFICATION_TYPE": "U",
    "NORAD_CAT_ID": 64774,
    "ELEMENT_SET_NO": 999,
    "REV_AT_EPOCH": 2055,
    "BSTAR": 0.0018093,
    "MEAN_MOTION_DOT": 0.0005369,
    "MEAN_MOTION_DDOT": 0.0,
    "TLE_LINE1": "1 64774U 25147V   25315.31189836  .00053690  00000+0  18093-2 0  9997",
    "TLE_LINE2": "2 64774  53.1570  72.8800 0001784  86.5606 273.5599 15.30243996 20551",
    "COMMENT": "Grouped by shell and plane from TLE"
  }
]